[{"OBJECT_NAME":"JY1SAT (JO-97)","OBJECT_ID":"2018-099AX","EPOCH":"2026-03-09T16:28:19.890048","MEAN_MOTION":15.30302629,"ECCENTRICITY":0.00047232,"INCLINATION":97.4249,"RA_OF_ASC_NODE":131.3625,"ARG_OF_PERICENTER":256.6795,"MEAN_ANOMALY":103.3919,"EPHEMERIS_TYPE":0,"CLASSIFICATION_TYPE":"U","NORAD_CAT_ID":43803,"ELEMENT_SET_NO":999,"REV_AT_EPOCH":39839,"BSTAR":0.00060804308,"MEAN_MOTION_DOT":0.00017774,"MEAN_MOTION_DDOT":0},{"OBJECT_NAME":"STARLINK-33922","OBJECT_ID":"2025-087B","EPOCH":"2026-03-09T16:38:17.555136","MEAN_MOTION":15.3019444,"ECCENTRICITY":7.003e-5,"INCLINATION":53.1587,"RA_OF_ASC_NODE":219.2958,"ARG_OF_PERICENTER":65.32,"MEAN_ANOMALY":294.7873,"EPHEMERIS_TYPE":0,"CLASSIFICATION_TYPE":"U","NORAD_CAT_ID":63698,"ELEMENT_SET_NO":999,"REV_AT_EPOCH":4919,"BSTAR":0.00069519657,"MEAN_MOTION_DOT":0.00020283,"MEAN_MOTION_DDOT":0}]
